ONEWEB-0379             
1 49305U 21090AC  25186.54970492  .00000272  00000+0  69995-3 0  9996
2 49305  87.9039 358.6710 0001841  96.4470 263.6869 13.14502556182028
ONEWEB-0380             
1 49306U 21090AD  25186.55075462  .00000059  00000+0  11492-3 0  9993
2 49306  87.9214  13.8845 0001675  87.4403 272.6922 13.19725148180706
ONEWEB-0381             
1 49307U 21090AE  25186.87402585  .00000010  00000+0 -78821-5 0  9998
2 49307  87.9271 343.4209 0001567  96.0644 264.0667 13.20773003185418
ONEWEB-0382             
1 49308U 21090AF  25186.86138787 -.00000113  00000+0 -31101-3 0  9991
2 49308  87.9270 343.4174 0001593 103.7830 256.3481 13.20771494185411
ONEWEB-0383             
1 49309U 21090AG  25186.84782930  .00000212  00000+0  53854-3 0  9992
2 49309  87.9037 358.5916 0001840  99.5372 260.5966 13.14502734183383
ONEWEB-0384             
1 49310U 21090AH  25186.40275265  .00000050  00000+0  92186-4 0  9996
2 49310  87.9274 343.5255 0001603 111.2754 248.8551 13.20786463184055
ONEWEB-0385             
1 49311U 21090AJ  25186.47471507  .00000076  00000+0  15427-3 0  9991
2 49311  87.9264 343.5120 0001748  98.5094 261.6238 13.20771783184032
ONEWEB-0386             
1 49312U 21090AK  25186.79510953  .00000009  00000+0 -10457-4 0  9992
2 49312  87.9268 343.4177 0001716 104.4460 255.6864 13.20771409185402
